FLOCK 4G-24             
1 62637U 25009AE  26068.72509072  .00010513  00000+0  38996-3 0  9991
2 62637  97.4061 151.5140 0001802 280.2808  79.8228 15.27784978 63732
STARLINK-36539          
1 67446U 26008B   26068.40715567  .00026294  00000+0  96122-3 0  9995
2 67446  43.0027 207.2864 0004048 291.8800  68.1621 15.27589101  9527
